[{"OBJECT_NAME":"CAS500-1","OBJECT_ID":"2021-022A","EPOCH":"2026-03-09T23:57:39.791808","MEAN_MOTION":15.20304346,"ECCENTRICITY":0.00036012,"INCLINATION":97.4003,"RA_OF_ASC_NODE":326.196,"ARG_OF_PERICENTER":278.8383,"MEAN_ANOMALY":81.2444,"EPHEMERIS_TYPE":0,"CLASSIFICATION_TYPE":"U","NORAD_CAT_ID":47932,"ELEMENT_SET_NO":999,"REV_AT_EPOCH":27569,"BSTAR":0.00044667126,"MEAN_MOTION_DOT":9.645e-5,"MEAN_MOTION_DDOT":0},{"OBJECT_NAME":"TECMS","OBJECT_ID":"2022-090A","EPOCH":"2026-03-09T23:23:02.255424","MEAN_MOTION":15.21523319,"ECCENTRICITY":0.00036997,"INCLINATION":97.323,"RA_OF_ASC_NODE":139.8482,"ARG_OF_PERICENTER":189.8561,"MEAN_ANOMALY":170.2604,"EPHEMERIS_TYPE":0,"CLASSIFICATION_TYPE":"U","NORAD_CAT_ID":53346,"ELEMENT_SET_NO":999,"REV_AT_EPOCH":19972,"BSTAR":0.00023961949,"MEAN_MOTION_DOT":5.328e-5,"MEAN_MOTION_DDOT":0}]
